{
    "links": {
        "self": "http://www.neowsapp.com/rest/v1/neo/3720003?api_key=iIulBulltgU6a56xZRHN4H3l9WmuAYTsLGpBGhQ2"
    },
    "id": "3720003",
    "neo_reference_id": "3720003",
    "name": "(2015 KV120)",
    "designation": "2015 KV120",
    "nasa_jpl_url": "http://ssd.jpl.nasa.gov/sbdb.cgi?sstr=3720003",
    "absolute_magnitude_h": 25.2,
    "estimated_diameter": {
        "kilometers": {
            "estimated_diameter_min": 0.0242412481,
            "estimated_diameter_max": 0.0542050786
        },
        "meters": {
            "estimated_diameter_min": 24.2412481101,
            "estimated_diameter_max": 54.2050786336
        },
        "miles": {
            "estimated_diameter_min": 0.0150628086,
            "estimated_diameter_max": 0.0336814639
        },
        "feet": {
            "estimated_diameter_min": 79.5316564495,
            "estimated_diameter_max": 177.8381901842
        }
    },
    "is_potentially_hazardous_asteroid": false,
    "close_approach_data": [
        {
            "close_approach_date": "2015-06-03",
            "close_approach_date_full": "2015-Jun-03 11:20",
            "epoch_date_close_approach": 1433330400000,
            "relative_velocity": {
                "kilometers_per_second": "6.7798262199",
                "kilometers_per_hour": "24407.3743918182",
                "miles_per_hour": "15165.793271405"
            },
            "miss_distance": {
                "astronomical": "0.070648947",
                "lunar": "27.482440383",
                "kilometers": "10568931.98894289",
                "miles": "6567229.811436282"
            },
            "orbiting_body": "Earth"
        }
    ],
    "orbital_data": {
        "orbit_id": "5",
        "orbit_determination_date": "2017-04-06 08:33:28",
        "first_observation_date": "2015-05-23",
        "last_observation_date": "2015-05-31",
        "data_arc_in_days": 8,
        "observations_used": 21,
        "orbit_uncertainty": "9",
        "minimum_orbit_intersection": ".0536012",
        "jupiter_tisserand_invariant": "3.909",
        "epoch_osculation": "2457167.5",
        "eccentricity": ".4332097948991044",
        "semi_major_axis": "1.831898676595324",
        "inclination": "2.774783042703592",
        "ascending_node_longitude": "173.38906739",
        "orbital_period": "905.6295822443856",
        "perihelion_distance": "1.038302226631523",
        "perihelion_argument": "98.44624897184758",
        "aphelion_distance": "2.625495126559125",
        "perihelion_time": "2457192.974140904603",
        "mean_anomaly": "349.8736846659428",
        "mean_motion": ".3975135166276552",
        "equinox": "J2000",
        "orbit_class": {
            "orbit_class_type": "AMO",
            "orbit_class_description": "Near-Earth asteroid orbits similar to that of 1221 Amor",
            "orbit_class_range": "1.017 AU < q (perihelion) < 1.3 AU"
        }
    },
    "is_sentry_object": false
}